BEIDOU-2 IGSO-1 (C06)   
1 36828U 10036A   23135.32876179 -.00000066  00000+0  00000+0 0  9995
2 36828  54.2086 173.2001 0035628 193.2775  91.0645  1.00255167 46907
BEIDOU-2 G4 (C04)       
1 37210U 10057A   23135.06212432 -.00000118  00000+0  00000+0 0  9999
2 37210   0.9462  53.1325 0001081  85.4693 276.3064  1.00271213 45969
BEIDOU-2 IGSO-2 (C07)   
1 37256U 10068A   23135.26946323 -.00000230  00000+0  00000+0 0  9991
2 37256  49.6153 285.6568 0025399 199.9917 312.0050  1.00262442 45478
BEIDOU-2 IGSO-3 (C08)   
1 37384U 11013A   23134.79758807 -.00000214  00000+0  00000+0 0  9991
2 37384  60.7761  50.9936 0022074 184.5607  30.6837  1.00267643 44343
BEIDOU-2 IGSO-4 (C09)   
1 37763U 11038A   23134.55389332  .00000020  00000+0  00000+0 0  9990
2 37763  54.4850 175.7302 0109646 229.2822 118.8363  1.00255773 43313
BEIDOU-2 IGSO-5 (C10)   
1 37948U 11073A   23134.88469431 -.00000172  00000+0  00000+0 0  9998
2 37948  49.7368 285.3208 0087007 218.4980 141.2335  1.00258497 42081
BEIDOU-2 G5 (C05)       
1 38091U 12008A   23135.04127550  .00000052  00000+0  00000+0 0  9995
2 38091   1.4516  65.5789 0004693 282.1997 318.2905  1.00268678 41157
BEIDOU-2 M3 (C11)       
1 38250U 12018A   23134.91061983 -.00000078  00000+0  00000+0 0  9994
2 38250  56.5688 342.5963 0020499 261.2821  55.6814  1.86231381 75257
BEIDOU-2 M4 (C12)       
1 38251U 12018B   23134.87076917 -.00000077  00000+0  00000+0 0  9992
2 38251  56.4805 341.8984 0011594 267.1438  68.4812  1.86234383 75253
BEIDOU-2 M6 (C14)       
1 38775U 12050B   23135.33258817  .00000025  00000+0  00000+0 0  9994
2 38775  55.6150 100.5245 0015087 325.3398 154.6034  1.86231336 72640
BEIDOU-2 G6 (C02)       
1 38953U 12059A   23135.54815432 -.00000179  00000+0  00000+0 0  9997
2 38953   1.7535  82.3970 0011116 314.8568 117.1422  1.00269216 38731
BEIDOU-3S IGSO-1S (C31) 
1 40549U 15019A   23134.93174414 -.00000188  00000+0  00000+0 0  9990
2 40549  51.3034 308.8836 0037244 191.1685 164.2772  1.00281970 29757
BEIDOU-3S M2S (C57)     
1 40748U 15037A   23134.54280475 -.00000076  00000+0  00000+0 0  9999
2 40748  55.7246 340.5738 0005330  35.3422 349.3521  1.86233496 53089
BEIDOU-3S M1S (C58)     
1 40749U 15037B   23134.57618904 -.00000077  00000+0  00000+0 0  9996
2 40749  55.7272 340.5631 0005404 355.9192 185.0687  1.86233129 53078
BEIDOU-3S IGSO-2S (C56) 
1 40938U 15053A   23134.84285602 -.00000169  00000+0  00000+0 0  9991
2 40938  50.9847 272.0467 0046935 193.0245 166.1456  1.00262699 28024
BEIDOU-2 IGSO-6 (C13)   
1 41434U 16021A   23134.74424372 -.00000181  00000+0  00000+0 0  9991
2 41434  58.5872  49.4182 0046496 225.7549 319.2511  1.00261709 26156
BEIDOU-2 G7 (C03)       
1 41586U 16037A   23135.22198295 -.00000358  00000+0  00000+0 0  9998
2 41586   1.6170  66.2902 0009527 354.2905   2.4133  1.00264091 25460
BEIDOU-3 M1 (C19)       
1 43001U 17069A   23134.53472601  .00000035  00000+0  00000+0 0  9998
2 43001  55.7662 100.5960 0012552 296.1064 165.4394  1.86231718 37565
BEIDOU-3 M2 (C20)       
1 43002U 17069B   23135.59022299  .00000021  00000+0  00000+0 0  9995
2 43002  55.7665 100.5959 0010333 313.8549 177.9882  1.86231323 37570
BEIDOU-3 M7 (C27)       
1 43107U 18003A   23134.88187206 -.00000080  00000+0  00000+0 0  9997
2 43107  55.1794 341.3335 0005586  58.6610 125.0181  1.86232563 36328
BEIDOU-3 M8 (C28)       
1 43108U 18003B   23135.07827216 -.00000081  00000+0  00000+0 0  9993
2 43108  55.1725 341.3142 0002091 274.9018  82.4957  1.86231046 36324
BEIDOU-3 M4 (C22)       
1 43207U 18018A   23133.37711748  .00000045  00000+0  00000+0 0  9991
2 43207  55.7244 100.7370 0007399 329.9581  29.9748  1.86231633 35682
BEIDOU-3 M3 (C21)       
1 43208U 18018B   23134.51759734  .00000035  00000+0  00000+0 0  9995
2 43208  55.7245 100.7036 0010303 305.5122  54.3637  1.86231616 35706
BEIDOU-3 M9 (C29)       
1 43245U 18029A   23135.55015911 -.00000082  00000+0  00000+0 0  9998
2 43245  55.0779 339.0537 0001103  37.4381 144.9892  1.86232710 34873
BEIDOU-3 M10 (C30)      
1 43246U 18029B   23135.45648419 -.00000082  00000+0  10000-3 0  9998
2 43246  55.0749 339.0858 0004975  13.7274 152.6953  1.86232968 34863
BEIDOU-2 IGSO-7 (C16)   
1 43539U 18057A   23134.56417944 -.00000081  00000+0  00000+0 0  9996
2 43539  55.1012 172.8205 0060820 230.6554 143.8602  1.00265471 17835
BEIDOU-3 M5 (C23)       
1 43581U 18062A   23134.36670508 -.00000019  00000+0  00000+0 0  9995
2 43581  54.1958 220.7685 0003002 271.7765  95.9364  1.86232033 32598
BEIDOU-3 M6 (C24)       
1 43582U 18062B   23134.75896966 -.00000018  00000+0  00000+0 0  9996
2 43582  54.1943 220.7441 0004501  20.2898 341.3006  1.86229551 32606
BEIDOU-3 M12 (C26)      
1 43602U 18067A   23135.24940569 -.00000012  00000+0  00000+0 0  9992
2 43602  54.2804 219.3728 0006782  17.8966 354.4294  1.86231810 32109
BEIDOU-3 M11 (C25)      
1 43603U 18067B   23134.82521493 -.00000015  00000+0  00000+0 0  9990
2 43603  54.2781 219.3530 0003814   9.7518 348.4639  1.86231693 32106
BEIDOU-3 M13 (C32)      
1 43622U 18072A   23134.51665161  .00000034  00000+0  00000+0 0  9994
2 43622  55.6937 100.2429 0009137 293.5056 245.9135  1.86231702 31612
BEIDOU-3 M14 (C33)      
1 43623U 18072B   23134.30477753  .00000036  00000+0  00000+0 0  9992
2 43623  55.6955 100.2430 0006819 312.0985 175.5063  1.86231682 31612
BEIDOU-3 M16 (C35)      
1 43647U 18078A   23132.37621157 -.00000069  00000+0  10000-3 0  9990
2 43647  54.9759 339.2947 0008378  15.0927 152.5660  1.86227457 31081
BEIDOU-3 M15 (C34)      
1 43648U 18078B   23134.68080469 -.00000078  00000+0  00000+0 0  9997
2 43648  54.9701 339.2197 0005324  27.2234 155.9234  1.86232333 31140
BEIDOU-3 G1 (C59)       
1 43683U 18085A   23134.86368916 -.00000282  00000+0  00000+0 0  9997
2 43683   1.2812 132.9482 0004267 313.1863 237.1910  1.00273338 16730
BEIDOU-3 M17 (C36)      
1 43706U 18093A   23134.55663700 -.00000018  00000+0  00000+0 0  9994
2 43706  54.2765 220.6719 0009147 274.8927  85.0409  1.86231828 30488
BEIDOU-3 M18 (C37)      
1 43707U 18093B   23135.49437363 -.00000012  00000+0  00000+0 0  9997
2 43707  54.2775 220.6302 0006733 307.5300  51.9223  1.86229869 30506
BEIDOU-3 IGSO-1 (C38)   
1 44204U 19023A   23134.79326569 -.00000246  00000+0  00000+0 0  9990
2 44204  57.0543  49.4337 0018713 206.8404  20.1862  1.00263037 15034
BEIDOU-2 G8 (C01)       
1 44231U 19027A   23134.10539142 -.00000255  00000+0  00000+0 0  9992
2 44231   1.6665  81.0425 0004383 123.0276 209.8425  1.00265930 14730
BEIDOU-3 IGSO-2 (C39)   
1 44337U 19035A   23134.51430147 -.00000081  00000+0  00000+0 0  9995
2 44337  55.1411 168.7841 0030691 201.3638 164.8347  1.00256245 14370
BEIDOU-3 M24 (C46)      
1 44542U 19061A   23134.49380894 -.00000019  00000+0  00000+0 0  9993
2 44542  54.5038 220.8816 0007265 342.9003  17.1128  1.86231102 24756
BEIDOU-3 M23 (C45)      
1 44543U 19061B   23134.85811872 -.00000017  00000+0  00000+0 0  9997
2 44543  54.5020 220.8375 0004324 336.0178 179.9949  1.86231694 24752
BEIDOU-3 IGSO-3 (C40)   
1 44709U 19073A   23134.84007573 -.00000202  00000+0  00000+0 0  9994
2 44709  56.7260 292.9257 0030895 177.3602 182.8419  1.00262058 13123
BEIDOU-3 M22 (C44)      
1 44793U 19078A   23135.14899682 -.00000081  00000+0  10000-3 0  9996
2 44793  54.8226 339.1799 0007261  22.5754 160.6700  1.86232255 23625
BEIDOU-3 M21 (C43)      
1 44794U 19078B   23134.25529722 -.00000076  00000+0  00000+0 0  9992
2 44794  54.7971 339.1955 0005240  19.7967 196.5262  1.86232770 23606
BEIDOU-3 M19 (C41)      
1 44864U 19090A   23134.36388301  .00000036  00000+0  00000+0 0  9997
2 44864  55.6280 100.4409 0019557 277.4169 205.7408  1.86231892 23196
BEIDOU-3 M20 (C42)      
1 44865U 19090B   23134.89901683  .00000030  00000+0  00000+0 0  9994
2 44865  55.6299 100.4560 0017649 289.6945 282.0563  1.86231857 23171
BEIDOU-3 G2 (C60)       
1 45344U 20017A   23134.86826051 -.00000148  00000+0  00000+0 0  9991
2 45344   2.0033  10.2072 0002660  84.4338 170.3053  1.00272108 11930
BEIDOU-3 G3 (C61)       
1 45807U 20040A   23134.88217229 -.00000361  00000+0  00000+0 0  9991
2 45807   0.7606 325.1372 0005625 322.7846  12.5015  1.00265580 10741
